[{"OBJECT_NAME":"LYNK TOWER 5","OBJECT_ID":"2024-043Z","EPOCH":"2026-03-09T22:11:51.175104","MEAN_MOTION":15.29454506,"ECCENTRICITY":0.00104056,"INCLINATION":97.5458,"RA_OF_ASC_NODE":204.7305,"ARG_OF_PERICENTER":234.6422,"MEAN_ANOMALY":125.3846,"EPHEMERIS_TYPE":0,"CLASSIFICATION_TYPE":"U","NORAD_CAT_ID":59121,"ELEMENT_SET_NO":999,"REV_AT_EPOCH":11186,"BSTAR":0.00031901545,"MEAN_MOTION_DOT":9.048e-5,"MEAN_MOTION_DDOT":0},{"OBJECT_NAME":"STARLINK-35695","OBJECT_ID":"2025-268B","EPOCH":"2026-03-09T03:42:57.450240","MEAN_MOTION":15.27597305,"ECCENTRICITY":0.00041644,"INCLINATION":43.0083,"RA_OF_ASC_NODE":350.4619,"ARG_OF_PERICENTER":256.8745,"MEAN_ANOMALY":103.1642,"EPHEMERIS_TYPE":0,"CLASSIFICATION_TYPE":"U","NORAD_CAT_ID":66558,"ELEMENT_SET_NO":999,"REV_AT_EPOCH":1787,"BSTAR":0.0011711522,"MEAN_MOTION_DOT":0.00032128,"MEAN_MOTION_DDOT":0}]
